<?xml version="1.0" encoding="UTF-8"?>
<ndm xmlns:xsi="http://www.w3.org/2001/XMLSchema-instance" xsi:noNamespaceSchemaLocation="https://sanaregistry.org/r/ndmxml_unqualified/ndmxml-2.0.0-master-2.0.xsd">
<omm id="CCSDS_OMM_VERS" version="2.0">
<header><CREATION_DATE/><ORIGINATOR/></header><body><segment><metadata><OBJECT_NAME>KUIPER-00027</OBJECT_NAME><OBJECT_ID>2025-088S</OBJECT_ID><CENTER_NAME>EARTH</CENTER_NAME><REF_FRAME>TEME</REF_FRAME><TIME_SYSTEM>UTC</TIME_SYSTEM><MEAN_ELEMENT_THEORY>SGP4</MEAN_ELEMENT_THEORY></metadata><data><meanElements><EPOCH>2025-10-17T11:33:26.307072</EPOCH><MEAN_MOTION>14.79468691</MEAN_MOTION><ECCENTRICITY>.000508</ECCENTRICITY><INCLINATION>51.9027</INCLINATION><RA_OF_ASC_NODE>8.6750</RA_OF_ASC_NODE><ARG_OF_PERICENTER>52.9454</ARG_OF_PERICENTER><MEAN_ANOMALY>307.1973</MEAN_ANOMALY></meanElements><tleParameters><EPHEMERIS_TYPE>0</EPHEMERIS_TYPE><CLASSIFICATION_TYPE>U</CLASSIFICATION_TYPE><NORAD_CAT_ID>63740</NORAD_CAT_ID><ELEMENT_SET_NO>999</ELEMENT_SET_NO><REV_AT_EPOCH>2641</REV_AT_EPOCH><BSTAR>.99767E-3</BSTAR><MEAN_MOTION_DOT>.731E-4</MEAN_MOTION_DOT><MEAN_MOTION_DDOT>0</MEAN_MOTION_DDOT></tleParameters></data></segment></body></omm>
<omm id="CCSDS_OMM_VERS" version="2.0">
<header><CREATION_DATE/><ORIGINATOR/></header><body><segment><metadata><OBJECT_NAME>KUIPER-00028</OBJECT_NAME><OBJECT_ID>2025-088T</OBJECT_ID><CENTER_NAME>EARTH</CENTER_NAME><REF_FRAME>TEME</REF_FRAME><TIME_SYSTEM>UTC</TIME_SYSTEM><MEAN_ELEMENT_THEORY>SGP4</MEAN_ELEMENT_THEORY></metadata><data><meanElements><EPOCH>2025-10-17T15:07:00.882912</EPOCH><MEAN_MOTION>14.79288977</MEAN_MOTION><ECCENTRICITY>.0004647</ECCENTRICITY><INCLINATION>51.9019</INCLINATION><RA_OF_ASC_NODE>5.9605</RA_OF_ASC_NODE><ARG_OF_PERICENTER>75.9673</ARG_OF_PERICENTER><MEAN_ANOMALY>284.1805</MEAN_ANOMALY></meanElements><tleParameters><EPHEMERIS_TYPE>0</EPHEMERIS_TYPE><CLASSIFICATION_TYPE>U</CLASSIFICATION_TYPE><NORAD_CAT_ID>63741</NORAD_CAT_ID><ELEMENT_SET_NO>999</ELEMENT_SET_NO><REV_AT_EPOCH>2687</REV_AT_EPOCH><BSTAR>.4741E-3</BSTAR><MEAN_MOTION_DOT>.3341E-4</MEAN_MOTION_DOT><MEAN_MOTION_DDOT>0</MEAN_MOTION_DDOT></tleParameters></data></segment></body></omm>
<omm id="CCSDS_OMM_VERS" version="2.0">
<header><CREATION_DATE/><ORIGINATOR/></header><body><segment><metadata><OBJECT_NAME>KUIPER-00029</OBJECT_NAME><OBJECT_ID>2025-088U</OBJECT_ID><CENTER_NAME>EARTH</CENTER_NAME><REF_FRAME>TEME</REF_FRAME><TIME_SYSTEM>UTC</TIME_SYSTEM><MEAN_ELEMENT_THEORY>SGP4</MEAN_ELEMENT_THEORY></metadata><data><meanElements><EPOCH>2025-10-17T14:39:03.222144</EPOCH><MEAN_MOTION>14.79959432</MEAN_MOTION><ECCENTRICITY>.0008741</ECCENTRICITY><INCLINATION>51.9029</INCLINATION><RA_OF_ASC_NODE>4.0381</RA_OF_ASC_NODE><ARG_OF_PERICENTER>23.1492</ARG_OF_PERICENTER><MEAN_ANOMALY>336.9863</MEAN_ANOMALY></meanElements><tleParameters><EPHEMERIS_TYPE>0</EPHEMERIS_TYPE><CLASSIFICATION_TYPE>U</CLASSIFICATION_TYPE><NORAD_CAT_ID>63742</NORAD_CAT_ID><ELEMENT_SET_NO>999</ELEMENT_SET_NO><REV_AT_EPOCH>2642</REV_AT_EPOCH><BSTAR>.7039E-3</BSTAR><MEAN_MOTION_DOT>.5153E-4</MEAN_MOTION_DOT><MEAN_MOTION_DDOT>0</MEAN_MOTION_DDOT></tleParameters></data></segment></body></omm>
<omm id="CCSDS_OMM_VERS" version="2.0">
<header><CREATION_DATE/><ORIGINATOR/></header><body><segment><metadata><OBJECT_NAME>KUIPER-00030</OBJECT_NAME><OBJECT_ID>2025-088V</OBJECT_ID><CENTER_NAME>EARTH</CENTER_NAME><REF_FRAME>TEME</REF_FRAME><TIME_SYSTEM>UTC</TIME_SYSTEM><MEAN_ELEMENT_THEORY>SGP4</MEAN_ELEMENT_THEORY></metadata><data><meanElements><EPOCH>2025-10-17T13:09:48.187296</EPOCH><MEAN_MOTION>14.79932881</MEAN_MOTION><ECCENTRICITY>.001416</ECCENTRICITY><INCLINATION>51.9014</INCLINATION><RA_OF_ASC_NODE>23.5058</RA_OF_ASC_NODE><ARG_OF_PERICENTER>321.1903</ARG_OF_PERICENTER><MEAN_ANOMALY>38.8041</MEAN_ANOMALY></meanElements><tleParameters><EPHEMERIS_TYPE>0</EPHEMERIS_TYPE><CLASSIFICATION_TYPE>U</CLASSIFICATION_TYPE><NORAD_CAT_ID>63743</NORAD_CAT_ID><ELEMENT_SET_NO>999</ELEMENT_SET_NO><REV_AT_EPOCH>2643</REV_AT_EPOCH><BSTAR>.58851E-3</BSTAR><MEAN_MOTION_DOT>.4272E-4</MEAN_MOTION_DOT><MEAN_MOTION_DDOT>0</MEAN_MOTION_DDOT></tleParameters></data></segment></body></omm>
<omm id="CCSDS_OMM_VERS" version="2.0">
<header><CREATION_DATE/><ORIGINATOR/></header><body><segment><metadata><OBJECT_NAME>KUIPER-00031</OBJECT_NAME><OBJECT_ID>2025-088W</OBJECT_ID><CENTER_NAME>EARTH</CENTER_NAME><REF_FRAME>TEME</REF_FRAME><TIME_SYSTEM>UTC</TIME_SYSTEM><MEAN_ELEMENT_THEORY>SGP4</MEAN_ELEMENT_THEORY></metadata><data><meanElements><EPOCH>2025-10-17T11:53:27.470976</EPOCH><MEAN_MOTION>14.79958996</MEAN_MOTION><ECCENTRICITY>.0004334</ECCENTRICITY><INCLINATION>51.9009</INCLINATION><RA_OF_ASC_NODE>9.8140</RA_OF_ASC_NODE><ARG_OF_PERICENTER>358.6547</ARG_OF_PERICENTER><MEAN_ANOMALY>1.4403</MEAN_ANOMALY></meanElements><tleParameters><EPHEMERIS_TYPE>0</EPHEMERIS_TYPE><CLASSIFICATION_TYPE>U</CLASSIFICATION_TYPE><NORAD_CAT_ID>63744</NORAD_CAT_ID><ELEMENT_SET_NO>999</ELEMENT_SET_NO><REV_AT_EPOCH>2633</REV_AT_EPOCH><BSTAR>.99524E-3</BSTAR><MEAN_MOTION_DOT>.7379E-4</MEAN_MOTION_DOT><MEAN_MOTION_DDOT>0</MEAN_MOTION_DDOT></tleParameters></data></segment></body></omm>
<omm id="CCSDS_OMM_VERS" version="2.0">
<header><CREATION_DATE/><ORIGINATOR/></header><body><segment><metadata><OBJECT_NAME>KUIPER-00032</OBJECT_NAME><OBJECT_ID>2025-088X</OBJECT_ID><CENTER_NAME>EARTH</CENTER_NAME><REF_FRAME>TEME</REF_FRAME><TIME_SYSTEM>UTC</TIME_SYSTEM><MEAN_ELEMENT_THEORY>SGP4</MEAN_ELEMENT_THEORY></metadata><data><meanElements><EPOCH>2025-10-17T13:18:17.677728</EPOCH><MEAN_MOTION>15.31346130</MEAN_MOTION><ECCENTRICITY>.000565</ECCENTRICITY><INCLINATION>51.8745</INCLINATION><RA_OF_ASC_NODE>353.0238</RA_OF_ASC_NODE><ARG_OF_PERICENTER>343.0314</ARG_OF_PERICENTER><MEAN_ANOMALY>17.0481</MEAN_ANOMALY></meanElements><tleParameters><EPHEMERIS_TYPE>0</EPHEMERIS_TYPE><CLASSIFICATION_TYPE>U</CLASSIFICATION_TYPE><NORAD_CAT_ID>63745</NORAD_CAT_ID><ELEMENT_SET_NO>999</ELEMENT_SET_NO><REV_AT_EPOCH>2757</REV_AT_EPOCH><BSTAR>.62488E-3</BSTAR><MEAN_MOTION_DOT>.18885E-3</MEAN_MOTION_DOT><MEAN_MOTION_DDOT>0</MEAN_MOTION_DDOT></tleParameters></data></segment></body></omm>
<omm id="CCSDS_OMM_VERS" version="2.0">
<header><CREATION_DATE/><ORIGINATOR/></header><body><segment><metadata><OBJECT_NAME>KUIPER-00033</OBJECT_NAME><OBJECT_ID>2025-088Y</OBJECT_ID><CENTER_NAME>EARTH</CENTER_NAME><REF_FRAME>TEME</REF_FRAME><TIME_SYSTEM>UTC</TIME_SYSTEM><MEAN_ELEMENT_THEORY>SGP4</MEAN_ELEMENT_THEORY></metadata><data><meanElements><EPOCH>2025-10-17T11:06:47.761920</EPOCH><MEAN_MOTION>14.79913838</MEAN_MOTION><ECCENTRICITY>.0004961</ECCENTRICITY><INCLINATION>51.9016</INCLINATION><RA_OF_ASC_NODE>39.9380</RA_OF_ASC_NODE><ARG_OF_PERICENTER>75.0129</ARG_OF_PERICENTER><MEAN_ANOMALY>285.1382</MEAN_ANOMALY></meanElements><tleParameters><EPHEMERIS_TYPE>0</EPHEMERIS_TYPE><CLASSIFICATION_TYPE>U</CLASSIFICATION_TYPE><NORAD_CAT_ID>63746</NORAD_CAT_ID><ELEMENT_SET_NO>999</ELEMENT_SET_NO><REV_AT_EPOCH>2639</REV_AT_EPOCH><BSTAR>.10636E-2</BSTAR><MEAN_MOTION_DOT>.7893E-4</MEAN_MOTION_DOT><MEAN_MOTION_DDOT>0</MEAN_MOTION_DDOT></tleParameters></data></segment></body></omm>
<omm id="CCSDS_OMM_VERS" version="2.0">
<header><CREATION_DATE/><ORIGINATOR/></header><body><segment><metadata><OBJECT_NAME>KUIPER-00034</OBJECT_NAME><OBJECT_ID>2025-088Z</OBJECT_ID><CENTER_NAME>EARTH</CENTER_NAME><REF_FRAME>TEME</REF_FRAME><TIME_SYSTEM>UTC</TIME_SYSTEM><MEAN_ELEMENT_THEORY>SGP4</MEAN_ELEMENT_THEORY></metadata><data><meanElements><EPOCH>2025-10-17T14:49:10.614144</EPOCH><MEAN_MOTION>14.79913491</MEAN_MOTION><ECCENTRICITY>.00021</ECCENTRICITY><INCLINATION>51.9028</INCLINATION><RA_OF_ASC_NODE>1.5512</RA_OF_ASC_NODE><ARG_OF_PERICENTER>356.1412</ARG_OF_PERICENTER><MEAN_ANOMALY>3.9534</MEAN_ANOMALY></meanElements><tleParameters><EPHEMERIS_TYPE>0</EPHEMERIS_TYPE><CLASSIFICATION_TYPE>U</CLASSIFICATION_TYPE><NORAD_CAT_ID>63747</NORAD_CAT_ID><ELEMENT_SET_NO>999</ELEMENT_SET_NO><REV_AT_EPOCH>2662</REV_AT_EPOCH><BSTAR>.7446E-3</BSTAR><MEAN_MOTION_DOT>.5457E-4</MEAN_MOTION_DOT><MEAN_MOTION_DDOT>0</MEAN_MOTION_DDOT></tleParameters></data></segment></body></omm>

</ndm>
