KUIPER-00027            
1 63740U 25088S   25290.48155448  .00007310  00000+0  99767-3 0  9991
2 63740  51.9027   8.6750 0005080  52.9454 307.1973 14.79468691 26412
KUIPER-00028            
1 63741U 25088T   25290.62987133  .00003341  00000+0  47410-3 0  9990
2 63741  51.9019   5.9605 0004647  75.9673 284.1805 14.79288977 26874
KUIPER-00029            
1 63742U 25088U   25290.61045396  .00005153  00000+0  70390-3 0  9992
2 63742  51.9029   4.0381 0008741  23.1492 336.9863 14.79959432 26422
KUIPER-00030            
1 63743U 25088V   25290.54847439  .00004272  00000+0  58851-3 0  9992
2 63743  51.9014  23.5058 0014160 321.1903  38.8041 14.79932881 26430
KUIPER-00031            
1 63744U 25088W   25290.49545684  .00007379  00000+0  99524-3 0  9997
2 63744  51.9009   9.8140 0004334 358.6547   1.4403 14.79958996 26337
KUIPER-00032            
1 63745U 25088X   25290.55437127  .00018885  00000+0  62488-3 0  9990
2 63745  51.8745 353.0238 0005650 343.0314  17.0481 15.31346130 27574
KUIPER-00033            
1 63746U 25088Y   25290.46305280  .00007893  00000+0  10636-2 0  9999
2 63746  51.9016  39.9380 0004961  75.0129 285.1382 14.79913838 26398
KUIPER-00034            
1 63747U 25088Z   25290.61748396  .00005457  00000+0  74460-3 0  9996
2 63747  51.9028   1.5512 0002100 356.1412   3.9534 14.79913491 26621
